[{"OBJECT_NAME":"STARLINK-6235","OBJECT_ID":"2023-088AY","EPOCH":"2026-03-09T22:00:01.999584","MEAN_MOTION":15.06741931,"ECCENTRICITY":0.00010958,"INCLINATION":43.0008,"RA_OF_ASC_NODE":92.9262,"ARG_OF_PERICENTER":310.061,"MEAN_ANOMALY":184.0636,"EPHEMERIS_TYPE":0,"CLASSIFICATION_TYPE":"U","NORAD_CAT_ID":57094,"ELEMENT_SET_NO":999,"REV_AT_EPOCH":577,"BSTAR":0.0034794355,"MEAN_MOTION_DOT":0.00052796,"MEAN_MOTION_DDOT":0},{"OBJECT_NAME":"LEMUR-2-SQUIRRELCOMM","OBJECT_ID":"2024-149DQ","EPOCH":"2026-03-09T21:26:31.466400","MEAN_MOTION":15.05887962,"ECCENTRICITY":0.00061012,"INCLINATION":97.6754,"RA_OF_ASC_NODE":150.1976,"ARG_OF_PERICENTER":42.3481,"MEAN_ANOMALY":317.8216,"EPHEMERIS_TYPE":0,"CLASSIFICATION_TYPE":"U","NORAD_CAT_ID":60578,"ELEMENT_SET_NO":999,"REV_AT_EPOCH":8545,"BSTAR":0.00060830109,"MEAN_MOTION_DOT":8.786e-5,"MEAN_MOTION_DDOT":0}]
